{
    "links": {
        "self": "http://www.neowsapp.com/rest/v1/neo/3406023?api_key=iIulBulltgU6a56xZRHN4H3l9WmuAYTsLGpBGhQ2"
    },
    "id": "3406023",
    "neo_reference_id": "3406023",
    "name": "(2008 EV84)",
    "designation": "2008 EV84",
    "nasa_jpl_url": "http://ssd.jpl.nasa.gov/sbdb.cgi?sstr=3406023",
    "absolute_magnitude_h": 25.4,
    "estimated_diameter": {
        "kilometers": {
            "estimated_diameter_min": 0.022108281,
            "estimated_diameter_max": 0.0494356193
        },
        "meters": {
            "estimated_diameter_min": 22.1082810359,
            "estimated_diameter_max": 49.435619262
        },
        "miles": {
            "estimated_diameter_min": 0.0137374447,
            "estimated_diameter_max": 0.0307178602
        },
        "feet": {
            "estimated_diameter_min": 72.5337327539,
            "estimated_diameter_max": 162.1903570994
        }
    },
    "is_potentially_hazardous_asteroid": false,
    "close_approach_data": [
        {
            "close_approach_date": "2008-03-14",
            "close_approach_date_full": "2008-Mar-14 18:52",
            "epoch_date_close_approach": 1205520720000,
            "relative_velocity": {
                "kilometers_per_second": "11.7957665524",
                "kilometers_per_hour": "42464.7595884928",
                "miles_per_hour": "26385.9502009721"
            },
            "miss_distance": {
                "astronomical": "0.0258420846",
                "lunar": "10.0525709094",
                "kilometers": "3865920.812519802",
                "miles": "2402171.8027131876"
            },
            "orbiting_body": "Earth"
        }
    ],
    "orbital_data": {
        "orbit_id": "6",
        "orbit_determination_date": "2017-04-06 09:04:01",
        "first_observation_date": "2008-03-11",
        "last_observation_date": "2008-03-12",
        "data_arc_in_days": 1,
        "observations_used": 18,
        "orbit_uncertainty": "9",
        "minimum_orbit_intersection": ".0257127",
        "jupiter_tisserand_invariant": "3.134",
        "epoch_osculation": "2454537.5",
        "eccentricity": ".6097016373299524",
        "semi_major_axis": "2.530200778150513",
        "inclination": "13.01191442629223",
        "ascending_node_longitude": "350.3666291086585",
        "orbital_period": "1470.045930989585",
        "perihelion_distance": ".9875332209386254",
        "perihelion_argument": "205.6838752093115",
        "aphelion_distance": "4.0728683353624",
        "perihelion_time": "2454557.576737479120",
        "mean_anomaly": "355.0834015862227",
        "mean_motion": ".2448903074461492",
        "equinox": "J2000",
        "orbit_class": {
            "orbit_class_type": "APO",
            "orbit_class_description": "Near-Earth asteroid orbits which cross the Earth’s orbit similar to that of 1862 Apollo",
            "orbit_class_range": "a (semi-major axis) > 1.0 AU; q (perihelion) < 1.017 AU"
        }
    },
    "is_sentry_object": false
}